{
  "norad_id": 68516,
  "name": "STARLINK-36290",
  "history": [
    {
      "epoch": "2026-04-07T13:27:02.636352Z",
      "apogee_km": 302.7572569207532,
      "perigee_km": 295.70328613511083,
      "latitude_deg": -3.519725783668568e-06,
      "longitude_deg": -32.93717704336866,
      "height_km": 303.6230673929465,
      "semi_major_axis_km": 6677.367271527932,
      "eccentricity": 0.0005282,
      "inclination_deg": 53.1612,
      "raan_deg": 4.6594,
      "arg_perigee_deg": 190.4635,
      "mean_anomaly_deg": 169.6283,
      "mean_motion_rev_day": 15.91090438
    }
  ]
}