{"fetched_at":"2026-04-08T20:46:07Z","count":9901,"tles":[{"name":"STARLINK-36290","line1":"1 68516U 26068J   26097.56044718  .00379813  65429-4  11805-2 0  9995","line2":"2 68516  53.1612   4.6594 0005282 190.4635 169.6283 15.91090438  1230","category":"Starlink"}]}